HERMES-1                
1 63242U 25052AJ  26068.69342910  .00006601  00000+0  30413-3 0  9993
2 63242  97.4020 322.1122 0007734 159.5432 200.6114 15.20586525 54679
MAUVE                   
1 66756U 25276CU  26068.71857583  .00008348  00000+0  39937-3 0  9994
2 66756  97.4273 144.0489 0000577 359.2470   0.8764 15.19228326 15328
